[{"OBJECT_NAME":"STARLINK-35094","OBJECT_ID":"2025-191S","EPOCH":"2026-03-09T15:53:13.704288","MEAN_MOTION":15.05657783,"ECCENTRICITY":0.00023323,"INCLINATION":97.6026,"RA_OF_ASC_NODE":301.4709,"ARG_OF_PERICENTER":96.4121,"MEAN_ANOMALY":263.7371,"EPHEMERIS_TYPE":0,"CLASSIFICATION_TYPE":"U","NORAD_CAT_ID":65395,"ELEMENT_SET_NO":999,"REV_AT_EPOCH":3027,"BSTAR":0.0001593648,"MEAN_MOTION_DOT":2.24e-5,"MEAN_MOTION_DDOT":0},{"OBJECT_NAME":"FAST","OBJECT_ID":"1996-049A","EPOCH":"2026-03-09T22:28:35.624352","MEAN_MOTION":11.82117041,"ECCENTRICITY":0.17389396,"INCLINATION":82.9442,"RA_OF_ASC_NODE":97.3438,"ARG_OF_PERICENTER":315.8434,"MEAN_ANOMALY":31.5935,"EPHEMERIS_TYPE":0,"CLASSIFICATION_TYPE":"U","NORAD_CAT_ID":24285,"ELEMENT_SET_NO":999,"REV_AT_EPOCH":22093,"BSTAR":0.00058191674,"MEAN_MOTION_DOT":7.541e-5,"MEAN_MOTION_DDOT":0}]
